{"type": "FeatureCollection", "features": [ {"type": "Feature", "properties": {"norad_id": 30996, "name": "FENGYUN 1C DEB", "group": "fengyun-1c-debris", "lat": 26.42329946076144, "lon": 87.24448668687005, "alt_km": 782.8068471213974, "timestamp": "2025-12-23T09:49:07.363156+00:00", "meta": {"OBJECT_NAME": "FENGYUN 1C DEB", "OBJECT_ID": "1999-025BCN", "EPOCH": "2025-12-22T05:25:27.011712", "MEAN_MOTION": 14.35456812, "ECCENTRICITY": 0.00496227, "INCLINATION": 98.9441, "RA_OF_ASC_NODE": 261.5302, "ARG_OF_PERICENTER": 263.7131, "MEAN_ANOMALY": 259.543, "EPHEMERIS_TYPE": 0, "CLASSIFICATION_TYPE": "U", "NORAD_CAT_ID": 30996, "ELEMENT_SET_NO": 999, "REV_AT_EPOCH": 97699, "BSTAR": 0.00084156519, "MEAN_MOTION_DOT": 2.405e-05, "MEAN_MOTION_DDOT": 0}, "tle": {"line1": "1 30996U 99025BCN 25356.22600708  .00002405  00000+0  84157-3 0  9996", "line2": "2 30996  98.9441 261.5302 0049622 263.7131 259.5430 14.35456812976996"}}, "geometry": {"type": "Point", "coordinates": [87.24448668687005, 26.42329946076144]}}, {"type": "Feature", "properties": {"norad_id": 30998, "name": "FENGYUN 1C DEB", "group": "fengyun-1c-debris", "lat": -69.18961282848254, "lon": 105.5009892269753, "alt_km": 744.152114275189, "timestamp": "2025-12-23T09:49:07.363169+00:00", "meta": {"OBJECT_NAME": "FENGYUN 1C DEB", "OBJECT_ID": "1999-025BCQ", "EPOCH": "2025-12-22T04:26:12.204672", "MEAN_MOTION": 14.48050479, "ECCENTRICITY": 0.00128094, "INCLINATION": 98.829, "RA_OF_ASC_NODE": 80.0844, "ARG_OF_PERICENTER": 169.5699, "MEAN_ANOMALY": 220.9049, "EPHEMERIS_TYPE": 0, "CLASSIFICATION_TYPE": "U", "NORAD_CAT_ID": 30998, "ELEMENT_SET_NO": 999, "REV_AT_EPOCH": 97327, "BSTAR": 0.0024879906, "MEAN_MOTION_DOT": 9.222e-05, "MEAN_MOTION_DDOT": 0}, "tle": {"line1": "1 30998U 99025BCQ 25356.18486348  .00009222  00000+0  24880-2 0  9995", "line2": "2 30998  98.8290  80.0844 0012809 169.5699 220.9049 14.48050479973272"}}, "geometry": {"type": "Point", "coordinates": [105.5009892269753, -69.18961282848254]}}, {"type": "Feature", "properties": {"norad_id": 30999, "name": "FENGYUN 1C DEB", "group": "fengyun-1c-debris", "lat": 79.98578574405006, "lon": 107.07349011846998, "alt_km": 751.6857415751456, "timestamp": "2025-12-23T09:49:07.363179+00:00", "meta": {"OBJECT_NAME": "FENGYUN 1C DEB", "OBJECT_ID": "1999-025BCR", "EPOCH": "2025-12-22T16:57:39.156480", "MEAN_MOTION": 14.58469892, "ECCENTRICITY": 0.01127146, "INCLINATION": 99.0913, "RA_OF_ASC_NODE": 171.3715, "ARG_OF_PERICENTER": 307.6315, "MEAN_ANOMALY": 51.4693, "EPHEMERIS_TYPE": 0, "CLASSIFICATION_TYPE": "U", "NORAD_CAT_ID": 30999, "ELEMENT_SET_NO": 999, "REV_AT_EPOCH": 98976, "BSTAR": 0.00057804611, "MEAN_MOTION_DOT": 2.867e-05, "MEAN_MOTION_DDOT": 0}, "tle": {"line1": "1 30999U 99025BCR 25356.70670320  .00002867  00000+0  57805-3 0  9991", "line2": "2 30999  99.0913 171.3715 0112714 307.6315  51.4693 14.58469892989762"}}, "geometry": {"type": "Point", "coordinates": [107.07349011846998, 79.98578574405006]}}, {"type": "Feature", "properties": {"norad_id": 31000, "name": "FENGYUN 1C DEB", "group": "fengyun-1c-debris", "lat": 11.168394374206942, "lon": 22.863748596304617, "alt_km": 752.3562817219608, "timestamp": "2025-12-23T09:49:07.363189+00:00", "meta": {"OBJECT_NAME": "FENGYUN 1C DEB", "OBJECT_ID": "1999-025BCS", "EPOCH": "2025-12-22T08:18:23.963616", "MEAN_MOTION": 14.09663362, "ECCENTRICITY": 0.01648726, "INCLINATION": 97.5654, "RA_OF_ASC_NODE": 23.4727, "ARG_OF_PERICENTER": 38.2868, "MEAN_ANOMALY": 342.4398, "EPHEMERIS_TYPE": 0, "CLASSIFICATION_TYPE": "U", "NORAD_CAT_ID": 31000, "ELEMENT_SET_NO": 999, "REV_AT_EPOCH": 70092, "BSTAR": 0.00052548341, "MEAN_MOTION_DOT": 1.012e-05, "MEAN_MOTION_DDOT": 0}, "tle": {"line1": "1 31000U 99025BCS 25356.34611069  .00001012  00000+0  52548-3 0  9990", "line2": "2 31000  97.5654  23.4727 0164872  38.2868 342.4398 14.09663362700921"}}, "geometry": {"type": "Point", "coordinates": [22.863748596304617, 11.168394374206942]}}, {"type": "Feature", "properties": {"norad_id": 31001, "name": "FENGYUN 1C DEB", "group": "fengyun-1c-debris", "lat": -25.386262817044823, "lon": -124.32523692142918, "alt_km": 841.9112955575201, "timestamp": "2025-12-23T09:49:07.363200+00:00", "meta": {"OBJECT_NAME": "FENGYUN 1C DEB", "OBJECT_ID": "1999-025BCT", "EPOCH": "2025-12-21T03:01:06.477888", "MEAN_MOTION": 14.42880653, "ECCENTRICITY": 0.01471177, "INCLINATION": 99.2718, "RA_OF_ASC_NODE": 228.7462, "ARG_OF_PERICENTER": 127.9463, "MEAN_ANOMALY": 233.5125, "EPHEMERIS_TYPE": 0, "CLASSIFICATION_TYPE": "U", "NORAD_CAT_ID": 31001, "ELEMENT_SET_NO": 999, "REV_AT_EPOCH": 98327, "BSTAR": 0.00022560539, "MEAN_MOTION_DOT": 8.02e-06, "MEAN_MOTION_DDOT": 0}, "tle": {"line1": "1 31001U 99025BCT 25355.12576942  .00000802  00000+0  22561-3 0  9994", "line2": "2 31001  99.2718 228.7462 0147117 127.9463 233.5125 14.42880653983278"}}, "geometry": {"type": "Point", "coordinates": [-124.32523692142918, -25.386262817044823]}}, {"type": "Feature", "properties": {"norad_id": 31002, "name": "FENGYUN 1C DEB", "group": "fengyun-1c-debris", "lat": 36.23220366493138, "lon": -164.36990969766285, "alt_km": 965.3663670267306, "timestamp": "2025-12-23T09:49:07.363210+00:00", "meta": {"OBJECT_NAME": "FENGYUN 1C DEB", "OBJECT_ID": "1999-025BCU", "EPOCH": "2025-12-20T21:37:46.056000", "MEAN_MOTION": 13.9920967, "ECCENTRICITY": 0.0098565, "INCLINATION": 98.885, "RA_OF_ASC_NODE": 6.6158, "ARG_OF_PERICENTER": 325.1028, "MEAN_ANOMALY": 152.4938, "EPHEMERIS_TYPE": 0, "CLASSIFICATION_TYPE": "U", "NORAD_CAT_ID": 31002, "ELEMENT_SET_NO": 999, "REV_AT_EPOCH": 95719, "BSTAR": 0.00023571, "MEAN_MOTION_DOT": 3.13e-06, "MEAN_MOTION_DDOT": 0}, "tle": {"line1": "1 31002U 99025BCU 25354.90122750  .00000313  00000+0  23571-3 0  9993", "line2": "2 31002  98.8850   6.6158 0098565 325.1028 152.4938 13.99209670957195"}}, "geometry": {"type": "Point", "coordinates": [-164.36990969766285, 36.23220366493138]}}, {"type": "Feature", "properties": {"norad_id": 31003, "name": "FENGYUN 1C DEB", "group": "fengyun-1c-debris", "lat": 36.45431691965482, "lon": 67.67258142824343, "alt_km": 832.0542191581226, "timestamp": "2025-12-23T09:49:07.363220+00:00", "meta": {"OBJECT_NAME": "FENGYUN 1C DEB", "OBJECT_ID": "1999-025BCV", "EPOCH": "2025-12-20T04:06:45.999936", "MEAN_MOTION": 14.24738155, "ECCENTRICITY": 0.00419876, "INCLINATION": 98.8429, "RA_OF_ASC_NODE": 71.0165, "ARG_OF_PERICENTER": 193.6229, "MEAN_ANOMALY": 166.382, "EPHEMERIS_TYPE": 0, "CLASSIFICATION_TYPE": "U", "NORAD_CAT_ID": 31003, "ELEMENT_SET_NO": 999, "REV_AT_EPOCH": 96615, "BSTAR": 0.00091425711, "MEAN_MOTION_DOT": 2.104e-05, "MEAN_MOTION_DDOT": 0}, "tle": {"line1": "1 31003U 99025BCV 25354.17136574  .00002104  00000+0  91426-3 0  9996", "line2": "2 31003  98.8429  71.0165 0041987 193.6229 166.3820 14.24738155966153"}}, "geometry": {"type": "Point", "coordinates": [67.67258142824343, 36.45431691965482]}}, {"type": "Feature", "properties": {"norad_id": 31005, "name": "FENGYUN 1C DEB", "group": "fengyun-1c-debris", "lat": 7.504886395898599, "lon": -48.58914034502662, "alt_km": 1026.4720213191285, "timestamp": "2025-12-23T09:49:07.363231+00:00", "meta": {"OBJECT_NAME": "FENGYUN 1C DEB", "OBJECT_ID": "1999-025BCX", "EPOCH": "2025-12-19T20:39:31.442112", "MEAN_MOTION": 13.83298695, "ECCENTRICITY": 0.01808266, "INCLINATION": 98.6131, "RA_OF_ASC_NODE": 127.0159, "ARG_OF_PERICENTER": 305.9328, "MEAN_ANOMALY": 207.436, "EPHEMERIS_TYPE": 0, "CLASSIFICATION_TYPE": "U", "NORAD_CAT_ID": 31005, "ELEMENT_SET_NO": 999, "REV_AT_EPOCH": 94379, "BSTAR": 0.00095824109, "MEAN_MOTION_DOT": 1.153e-05, "MEAN_MOTION_DDOT": 0}, "tle": {"line1": "1 31005U 99025BCX 25353.86078058  .00001153  00000+0  95824-3 0  9994", "line2": "2 31005  98.6131 127.0159 0180826 305.9328 207.4360 13.83298695943797"}}, "geometry": {"type": "Point", "coordinates": [-48.58914034502662, 7.504886395898599]}}, {"type": "Feature", "properties": {"norad_id": 31007, "name": "FENGYUN 1C DEB", "group": "fengyun-1c-debris", "lat": -71.91250861317842, "lon": 143.1199063882775, "alt_km": 721.165545198659, "timestamp": "2025-12-23T09:49:07.363241+00:00", "meta": {"OBJECT_NAME": "FENGYUN 1C DEB", "OBJECT_ID": "1999-025BCZ", "EPOCH": "2025-12-22T22:46:46.239456", "MEAN_MOTION": 14.58840896, "ECCENTRICITY": 0.00666747, "INCLINATION": 98.0881, "RA_OF_ASC_NODE": 348.4823, "ARG_OF_PERICENTER": 6.631, "MEAN_ANOMALY": 353.5757, "EPHEMERIS_TYPE": 0, "CLASSIFICATION_TYPE": "U", "NORAD_CAT_ID": 31007, "ELEMENT_SET_NO": 999, "REV_AT_EPOCH": 98243, "BSTAR": 0.0024480089, "MEAN_MOTION_DOT": 0.00011781, "MEAN_MOTION_DDOT": 0}, "tle": {"line1": "1 31007U 99025BCZ 25356.94914629  .00011781  00000+0  24480-2 0  9998", "line2": "2 31007  98.0881 348.4823 0066674   6.6310 353.5757 14.58840896982438"}}, "geometry": {"type": "Point", "coordinates": [143.1199063882775, -71.91250861317842]}}, {"type": "Feature", "properties": {"norad_id": 31009, "name": "FENGYUN 1C DEB", "group": "fengyun-1c-debris", "lat": 79.63909998523532, "lon": -66.00491960590723, "alt_km": 905.6921292474644, "timestamp": "2025-12-23T09:49:07.363253+00:00", "meta": {"OBJECT_NAME": "FENGYUN 1C DEB", "OBJECT_ID": "1999-025BDB", "EPOCH": "2025-12-22T11:54:20.822112", "MEAN_MOTION": 14.00367101, "ECCENTRICITY": 0.00530683, "INCLINATION": 98.8966, "RA_OF_ASC_NODE": 352.0568, "ARG_OF_PERICENTER": 209.6888, "MEAN_ANOMALY": 315.1225, "EPHEMERIS_TYPE": 0, "CLASSIFICATION_TYPE": "U", "NORAD_CAT_ID": 31009, "ELEMENT_SET_NO": 999, "REV_AT_EPOCH": 95997, "BSTAR": 6.3793383e-05, "MEAN_MOTION_DOT": 5.2e-07, "MEAN_MOTION_DDOT": 0}, "tle": {"line1": "1 31009U 99025BDB 25356.49607433  .00000052  00000+0  63793-4 0  9993", "line2": "2 31009  98.8966 352.0568 0053068 209.6888 315.1225 14.00367101959974"}}, "geometry": {"type": "Point", "coordinates": [-66.00491960590723, 79.63909998523532]}}]}